CCSDS_OMM_VERS = 2.0
CREATION_DATE  = 
ORIGINATOR     = 

OBJECT_NAME    = STARLINK-35291
OBJECT_ID      = 2025-235AB
CENTER_NAME    = EARTH
REF_FRAME      = TEME
TIME_SYSTEM    = UTC
MEAN_ELEMENT_THEORY = SGP/SGP4

EPOCH          = 2025-10-30T19:08:42.931968
MEAN_MOTION    = 15.84712889
ECCENTRICITY   = .00049696
INCLINATION    = 53.1503
RA_OF_ASC_NODE = 133.6571
ARG_OF_PERICENTER = 184.7649
MEAN_ANOMALY   = 175.3329

EPHEMERIS_TYPE = 0
CLASSIFICATION_TYPE = U
NORAD_CAT_ID   = 66083
ELEMENT_SET_NO = 999
REV_AT_EPOCH   = 293
BSTAR          = .45845655E-3
MEAN_MOTION_DOT = .109085E-2
MEAN_MOTION_DDOT = 0

CCSDS_OMM_VERS = 2.0
CREATION_DATE  = 
ORIGINATOR     = 

OBJECT_NAME    = STARLINK-35379
OBJECT_ID      = 2025-235AC
CENTER_NAME    = EARTH
REF_FRAME      = TEME
TIME_SYSTEM    = UTC
MEAN_ELEMENT_THEORY = SGP/SGP4

EPOCH          = 2025-10-30T14:35:42.912384
MEAN_MOTION    = 15.85348117
ECCENTRICITY   = .00008242
INCLINATION    = 53.1500
RA_OF_ASC_NODE = 134.6089
ARG_OF_PERICENTER = 102.1127
MEAN_ANOMALY   = 257.9990

EPHEMERIS_TYPE = 0
CLASSIFICATION_TYPE = U
NORAD_CAT_ID   = 66084
ELEMENT_SET_NO = 999
REV_AT_EPOCH   = 293
BSTAR          = -.24141327E-2
MEAN_MOTION_DOT = -.553681E-2
MEAN_MOTION_DDOT = 0

CCSDS_OMM_VERS = 2.0
CREATION_DATE  = 
ORIGINATOR     = 

OBJECT_NAME    = STARLINK-35370
OBJECT_ID      = 2025-235AD
CENTER_NAME    = EARTH
REF_FRAME      = TEME
TIME_SYSTEM    = UTC
MEAN_ELEMENT_THEORY = SGP/SGP4

EPOCH          = 2025-10-30T22:09:16.005024
MEAN_MOTION    = 15.84226422
ECCENTRICITY   = .00030807
INCLINATION    = 53.1494
RA_OF_ASC_NODE = 133.0160
ARG_OF_PERICENTER = 20.0262
MEAN_ANOMALY   = 340.0882

EPHEMERIS_TYPE = 0
CLASSIFICATION_TYPE = U
NORAD_CAT_ID   = 66085
ELEMENT_SET_NO = 999
REV_AT_EPOCH   = 295
BSTAR          = -.29498556E-2
MEAN_MOTION_DOT = -.635441E-2
MEAN_MOTION_DDOT = 0

CCSDS_OMM_VERS = 2.0
CREATION_DATE  = 
ORIGINATOR     = 

OBJECT_NAME    = STARLINK-35629
OBJECT_ID      = 2025-237P
CENTER_NAME    = EARTH
REF_FRAME      = TEME
TIME_SYSTEM    = UTC
MEAN_ELEMENT_THEORY = SGP/SGP4

EPOCH          = 2025-10-30T07:38:43.324800
MEAN_MOTION    = 15.96261211
ECCENTRICITY   = .0003151
INCLINATION    = 53.1445
RA_OF_ASC_NODE = 295.6606
ARG_OF_PERICENTER = 126.6665
MEAN_ANOMALY   = 233.4654

EPHEMERIS_TYPE = 0
CLASSIFICATION_TYPE = U
NORAD_CAT_ID   = 66127
ELEMENT_SET_NO = 999
REV_AT_EPOCH   = 250
BSTAR          = -.80702E-3
MEAN_MOTION_DOT = -.348049E-2
MEAN_MOTION_DDOT = .51903E-4

CCSDS_OMM_VERS = 2.0
CREATION_DATE  = 
ORIGINATOR     = 

OBJECT_NAME    = TJS-20
OBJECT_ID      = 2025-238A
CENTER_NAME    = EARTH
REF_FRAME      = TEME
TIME_SYSTEM    = UTC
MEAN_ELEMENT_THEORY = SGP/SGP4

EPOCH          = 2025-10-24T00:30:38.644704
MEAN_MOTION    = 1.72601617
ECCENTRICITY   = .77630572
INCLINATION    = 16.4249
RA_OF_ASC_NODE = 273.2021
ARG_OF_PERICENTER = 165.3209
MEAN_ANOMALY   = 248.2978

EPHEMERIS_TYPE = 0
CLASSIFICATION_TYPE = U
NORAD_CAT_ID   = 66142
ELEMENT_SET_NO = 999
REV_AT_EPOCH   = 2
BSTAR          = .89265633E-3
MEAN_MOTION_DOT = .7775E-4
MEAN_MOTION_DDOT = .152554E-5

CCSDS_OMM_VERS = 2.0
CREATION_DATE  = 
ORIGINATOR     = 

OBJECT_NAME    = CZ-5 R/B
OBJECT_ID      = 2025-238B
CENTER_NAME    = EARTH
REF_FRAME      = TEME
TIME_SYSTEM    = UTC
MEAN_ELEMENT_THEORY = SGP/SGP4

EPOCH          = 2025-10-30T16:44:06.848736
MEAN_MOTION    = 1.93025961
ECCENTRICITY   = .7595707
INCLINATION    = 16.3901
RA_OF_ASC_NODE = 271.0168
ARG_OF_PERICENTER = 168.4437
MEAN_ANOMALY   = 232.7638

EPHEMERIS_TYPE = 0
CLASSIFICATION_TYPE = U
NORAD_CAT_ID   = 66143
ELEMENT_SET_NO = 999
REV_AT_EPOCH   = 15
BSTAR          = .11683E-2
MEAN_MOTION_DOT = .25495E-3
MEAN_MOTION_DDOT = -.90227E-6

CCSDS_OMM_VERS = 2.0
CREATION_DATE  = 
ORIGINATOR     = 

OBJECT_NAME    = SPAINSAT NG II
OBJECT_ID      = 2025-239A
CENTER_NAME    = EARTH
REF_FRAME      = TEME
TIME_SYSTEM    = UTC
MEAN_ELEMENT_THEORY = SGP/SGP4

EPOCH          = 2025-10-27T22:45:30.969504
MEAN_MOTION    = 1.15299465
ECCENTRICITY   = .81891439
INCLINATION    = 26.1863
RA_OF_ASC_NODE = 246.2237
ARG_OF_PERICENTER = 179.5119
MEAN_ANOMALY   = 183.0640

EPHEMERIS_TYPE = 0
CLASSIFICATION_TYPE = U
NORAD_CAT_ID   = 66144
ELEMENT_SET_NO = 999
REV_AT_EPOCH   = 6
BSTAR          = .18821197E-2
MEAN_MOTION_DOT = -.13E-5
MEAN_MOTION_DDOT = 0

CCSDS_OMM_VERS = 2.0
CREATION_DATE  = 
ORIGINATOR     = 

OBJECT_NAME    = HTV-X1
OBJECT_ID      = 2025-241A
CENTER_NAME    = EARTH
REF_FRAME      = TEME
TIME_SYSTEM    = UTC
MEAN_ELEMENT_THEORY = SGP/SGP4

EPOCH          = 2025-10-31T03:59:25.206144
MEAN_MOTION    = 15.49645314
ECCENTRICITY   = .00049108
INCLINATION    = 51.6343
RA_OF_ASC_NODE = 353.2496
ARG_OF_PERICENTER = 359.9780
MEAN_ANOMALY   = 0.1208

EPHEMERIS_TYPE = 0
CLASSIFICATION_TYPE = U
NORAD_CAT_ID   = 66174
ELEMENT_SET_NO = 999
REV_AT_EPOCH   = 77
BSTAR          = .31236461E-3
MEAN_MOTION_DOT = .17194E-3
MEAN_MOTION_DDOT = 0

CCSDS_OMM_VERS = 2.0
CREATION_DATE  = 
ORIGINATOR     = 

OBJECT_NAME    = GAOFEN-14 02
OBJECT_ID      = 2025-242A
CENTER_NAME    = EARTH
REF_FRAME      = TEME
TIME_SYSTEM    = UTC
MEAN_ELEMENT_THEORY = SGP/SGP4

EPOCH          = 2025-10-28T02:32:28.748256
MEAN_MOTION    = 15.27335919
ECCENTRICITY   = .0010327
INCLINATION    = 97.4398
RA_OF_ASC_NODE = 13.2893
ARG_OF_PERICENTER = 261.9781
MEAN_ANOMALY   = 98.0286

EPHEMERIS_TYPE = 0
CLASSIFICATION_TYPE = U
NORAD_CAT_ID   = 66175
ELEMENT_SET_NO = 999
REV_AT_EPOCH   = 30
BSTAR          = .55401E-3
MEAN_MOTION_DOT = .14793E-3
MEAN_MOTION_DDOT = 0

CCSDS_OMM_VERS = 2.0
CREATION_DATE  = 
ORIGINATOR     = 

OBJECT_NAME    = CZ-3B R/B
OBJECT_ID      = 2025-242B
CENTER_NAME    = EARTH
REF_FRAME      = TEME
TIME_SYSTEM    = UTC
MEAN_ELEMENT_THEORY = SGP/SGP4

EPOCH          = 2025-10-28T22:23:52.906272
MEAN_MOTION    = 15.40950652
ECCENTRICITY   = .010504
INCLINATION    = 97.4517
RA_OF_ASC_NODE = 13.9913
ARG_OF_PERICENTER = 32.7474
MEAN_ANOMALY   = 328.0225

EPHEMERIS_TYPE = 0
CLASSIFICATION_TYPE = U
NORAD_CAT_ID   = 66176
ELEMENT_SET_NO = 999
REV_AT_EPOCH   = 43
BSTAR          = .72796E-3
MEAN_MOTION_DOT = .36568E-3
MEAN_MOTION_DDOT = 0

CCSDS_OMM_VERS = 2.0
CREATION_DATE  = 
ORIGINATOR     = 

OBJECT_NAME    = 2025-242C
OBJECT_ID      = 2025-242C
CENTER_NAME    = EARTH
REF_FRAME      = TEME
TIME_SYSTEM    = UTC
MEAN_ELEMENT_THEORY = SGP/SGP4

EPOCH          = 2025-10-26T09:41:17.179584
MEAN_MOTION    = 15.17165482
ECCENTRICITY   = .0044551
INCLINATION    = 97.6110
RA_OF_ASC_NODE = 12.4552
ARG_OF_PERICENTER = 134.5252
MEAN_ANOMALY   = 225.9635

EPHEMERIS_TYPE = 0
CLASSIFICATION_TYPE = U
NORAD_CAT_ID   = 66177
ELEMENT_SET_NO = 999
REV_AT_EPOCH   = 3
BSTAR          = .21434E-3
MEAN_MOTION_DOT = .4293E-4
MEAN_MOTION_DDOT = 0

CCSDS_OMM_VERS = 2.0
CREATION_DATE  = 
ORIGINATOR     = 

OBJECT_NAME    = GRAVITY-1 R/B
OBJECT_ID      = 2025-226E
CENTER_NAME    = EARTH
REF_FRAME      = TEME
TIME_SYSTEM    = UTC
MEAN_ELEMENT_THEORY = SGP/SGP4

EPOCH          = 2025-10-31T15:17:05.954208
MEAN_MOTION    = 15.53492010
ECCENTRICITY   = .0162254
INCLINATION    = 97.7932
RA_OF_ASC_NODE = 20.6411
ARG_OF_PERICENTER = 325.1460
MEAN_ANOMALY   = 33.9248

EPHEMERIS_TYPE = 0
CLASSIFICATION_TYPE = U
NORAD_CAT_ID   = 66205
ELEMENT_SET_NO = 999
REV_AT_EPOCH   = 93
BSTAR          = .41564E-3
MEAN_MOTION_DOT = .46566E-3
MEAN_MOTION_DDOT = .28957E-5

