STARLINK-35291          
1 66083U 25235AB  25303.79771912  .00109085  00000+0  45846-3 0  9998
2 66083  53.1503 133.6571 0004969 184.7649 175.3329 15.84712889  2932
STARLINK-35379          
1 66084U 25235AC  25303.60813556 -.00553681  00000+0 -24141-2 0  9991
2 66084  53.1500 134.6089 0000824 102.1127 257.9990 15.85348117  2937
STARLINK-35370          
1 66085U 25235AD  25303.92310191 -.00635441  00000+0 -29499-2 0  9990
2 66085  53.1494 133.0160 0003080  20.0262 340.0882 15.84226422  2957
STARLINK-35629          
1 66127U 25237P   25303.31855700 -.00348049  51903-4 -80702-3 0  9995
2 66127  53.1445 295.6606 0003151 126.6665 233.4654 15.96261211  2500
TJS-20                  
1 66142U 25238A   25297.02128061  .00007775  15255-5  89266-3 0  9997
2 66142  16.4249 273.2021 7763057 165.3209 248.2978  1.72601617    28
CZ-5 R/B                
1 66143U 25238B   25303.69730149  .00025495 -90227-6  11683-2 0  9995
2 66143  16.3901 271.0168 7595707 168.4437 232.7638  1.93025961   153
SPAINSAT NG II          
1 66144U 25239A   25300.94827511 -.00000130  00000+0  18821-2 0  9995
2 66144  26.1863 246.2237 8189143 179.5119 183.0640  1.15299465    62
HTV-X1                  
1 66174U 25241A   25304.16626396  .00017194  00000+0  31236-3 0  9990
2 66174  51.6343 353.2496 0004910 359.9780   0.1208 15.49645314   772
GAOFEN-14 02            
1 66175U 25242A   25301.10588829  .00014793  00000+0  55401-3 0  9993
2 66175  97.4398  13.2893 0010327 261.9781  98.0286 15.27335919   301
CZ-3B R/B               
1 66176U 25242B   25301.93325123  .00036568  00000+0  72796-3 0  9991
2 66176  97.4517  13.9913 0105040  32.7474 328.0225 15.40950652   430
2025-242C               
1 66177U 25242C   25299.40367106  .00004293  00000+0  21434-3 0  9990
2 66177  97.6110  12.4552 0044551 134.5252 225.9635 15.17165482    38
GRAVITY-1 R/B           
1 66205U 25226E   25304.63687447  .00046566  28957-5  41564-3 0  9991
2 66205  97.7932  20.6411 0162254 325.1460  33.9248 15.53492010   934
